[{"OBJECT_NAME":"GEOSCAN 2 (RS92S2)","OBJECT_ID":"2025-155Q","EPOCH":"2026-03-09T23:01:48.939744","MEAN_MOTION":15.28709337,"ECCENTRICITY":0.00085277,"INCLINATION":97.4463,"RA_OF_ASC_NODE":37.5259,"ARG_OF_PERICENTER":140.9505,"MEAN_ANOMALY":219.2352,"EPHEMERIS_TYPE":0,"CLASSIFICATION_TYPE":"U","NORAD_CAT_ID":64890,"ELEMENT_SET_NO":999,"REV_AT_EPOCH":6561,"BSTAR":0.00051551761,"MEAN_MOTION_DOT":0.00014341,"MEAN_MOTION_DDOT":0},{"OBJECT_NAME":"STARLINK-36070","OBJECT_ID":"2025-281S","EPOCH":"2026-03-09T02:35:17.409696","MEAN_MOTION":15.27576757,"ECCENTRICITY":0.00018055,"INCLINATION":43.0021,"RA_OF_ASC_NODE":347.0065,"ARG_OF_PERICENTER":253.1497,"MEAN_ANOMALY":106.9157,"EPHEMERIS_TYPE":0,"CLASSIFICATION_TYPE":"U","NORAD_CAT_ID":66864,"ELEMENT_SET_NO":999,"REV_AT_EPOCH":1609,"BSTAR":0.0011125818,"MEAN_MOTION_DOT":0.00030478,"MEAN_MOTION_DDOT":0}]
